ORBCOMM FM36            
1 25984U 99065E   26062.93585264  .00001508  00000+0  53015-3 0  9995
2 25984  45.0392 299.1639 0002286 156.2139 203.8816 14.38965389371822
ORBCOMM FM35            
1 25985U 99065F   26062.62248638  .00001293  00000+0  47139-3 0  9994
2 25985  45.0400 307.8224 0003439 269.6007  90.4447 14.37857198372114
ORBCOMM FM34            
1 25986U 99065G   26062.94036100  .00001182  00000+0  43589-3 0  9991
2 25986  45.0395 306.8241 0002984 213.2241 146.8421 14.37772058372271
ORBCOMM FM38            
1 33060U 08031A   26062.66000409  .00002751  00000+0  36374-3 0  9995
2 33060  48.4387 157.4595 0003834  79.4477 280.6871 14.82700765953234
ORBCOMM FM41            
1 33061U 08031B   26062.70099040  .00002658  00000+0  35618-3 0  9996
2 33061  48.4424 165.9792 0003146  59.3823  93.5054 14.82236253952710
ORBCOMM FM29            
1 33062U 08031C   26062.72959249  .00002918  00000+0  38687-3 0  9993
2 33062  48.4374 173.2777 0004761  60.9261  92.4044 14.82409704952639
ORBCOMM FM39            
1 33063U 08031D   26062.79649968  .00002659  00000+0  36859-3 0  9996
2 33063  48.4384 200.2281 0005935  28.5958 331.5282 14.80792110952252
ORBCOMM FM37            
1 33064U 08031E   26062.75970084  .00002609  00000+0  36048-3 0  9994
2 33064  48.4380 188.5232 0004392  49.1760 103.6988 14.80986006952507
ORBCOMM FM40            
1 33065U 08031F   26062.71900578  .00003306  00000+0  42241-3 0  9999
2 33065  48.4400 168.0824 0005190  68.0382  85.0756 14.83620247952677
VESSELSAT 1             
1 37840U 11058C   26062.91992009  .00000407  00000+0  77306-4 0  9999
2 37840  19.9630 322.1661 0013707 163.4659 196.6194 14.11419000743040
ORBCOMM FM109           
1 40086U 14040A   26062.48612581  .00000747  00000+0  19479-3 0  9998
2 40086  47.0020 231.1854 0001152 108.1548 251.9464 14.58710652618918
ORBCOMM FM107           
1 40087U 14040B   26062.77506343  .00001072  00000+0  26324-3 0  9998
2 40087  47.0035 230.6735 0000680 356.3003   3.7878 14.58795795619032
ORBCOMM FM106           
1 40088U 14040C   26062.28526300  .00001465  00000+0  27097-3 0  9994
2 40088  47.0612  34.0708 0016341 194.6073 165.4348 14.70283276621593
ORBCOMM FM111           
1 40089U 14040D   26062.72953888  .00004593  00000+0  51086-3 0  9999
2 40089  46.9992 205.9639 0028343 354.9157   5.1449 14.88300410628862
ORBCOMM FM104           
1 40090U 14040E   26062.91395148  .00000771  00000+0  20664-3 0  9993
2 40090  47.0043 266.7827 0016469 311.1302  48.8161 14.57156833618497
ORBCOMM FM103           
1 40091U 14040F   26062.89943149  .00000961  00000+0  24036-3 0  9999
2 40091  47.0039 230.8026 0001226  13.9699 346.1221 14.58698551602018
